[{"OBJECT_NAME":"STARLINK-5921","OBJECT_ID":"2023-037N","EPOCH":"2026-03-09T22:23:24.352800","MEAN_MOTION":14.98319781,"ECCENTRICITY":0.0002778,"INCLINATION":69.9978,"RA_OF_ASC_NODE":283.9635,"ARG_OF_PERICENTER":268.4707,"MEAN_ANOMALY":91.6134,"EPHEMERIS_TYPE":0,"CLASSIFICATION_TYPE":"U","NORAD_CAT_ID":55926,"ELEMENT_SET_NO":999,"REV_AT_EPOCH":16401,"BSTAR":-0.00015944198,"MEAN_MOTION_DOT":-1.994e-5,"MEAN_MOTION_DDOT":0},{"OBJECT_NAME":"CENTAURI-8","OBJECT_ID":"2025-009DK","EPOCH":"2026-03-09T17:25:58.526112","MEAN_MOTION":14.9722833,"ECCENTRICITY":0.00030201,"INCLINATION":97.7096,"RA_OF_ASC_NODE":150.1876,"ARG_OF_PERICENTER":109.5881,"MEAN_ANOMALY":250.5667,"EPHEMERIS_TYPE":0,"CLASSIFICATION_TYPE":"U","NORAD_CAT_ID":62714,"ELEMENT_SET_NO":999,"REV_AT_EPOCH":6259,"BSTAR":0.00038891127,"MEAN_MOTION_DOT":4.445e-5,"MEAN_MOTION_DDOT":0}]
